EUTELSAT 8 WEST B       
1 40875U 15039B   25348.27213012 -.00000048  00000+0  00000+0 0  9993
2 40875   0.0667  11.4770 0004244 252.3890 269.3077  1.00271739 37800
EUTELSAT 9B             
1 41310U 16005A   25348.27551014  .00000079  00000+0  00000+0 0  9992
2 41310   0.0487  66.6131 0004578 204.9035 279.8585  1.00270697 36263
EUTELSAT 65 WEST A      
1 41382U 16014A   25348.26086337 -.00000259  00000+0  00000+0 0  9992
2 41382   0.0532  18.0834 0002432 253.6645 200.1459  1.00271529 35686
EUTELSAT 117 WEST B     
1 41589U 16038B   25348.25184998  .00000006  00000+0  00000+0 0  9997
2 41589   0.0106 154.7205 0000066 341.1575 280.9745  1.00270820 34808
EUTELSAT 172B           
1 42741U 17029B   25348.23650990  .00000012  00000+0  00000+0 0  9994
2 42741   0.0440 150.7098 0000088 253.2021 296.3754  1.00271195 31870
EUTELSAT 7C             
1 44334U 19034B   25348.27516347  .00000066  00000+0  00000+0 0  9992
2 44334   0.0721 177.2248 0003145  69.2885 302.7275  1.00271566  4987
EUTELSAT 5 WEST B       
1 44624U 19067A   25348.27273678 -.00000024  00000+0  00000+0 0  9992
2 44624   0.0660 337.0940 0003343 288.3519 270.9344  1.00274542 22580
EUTELSAT KONNECT        
1 45027U 20005B   25348.27516347  .00000068  00000+0  00000+0 0  9994
2 45027   0.0699  98.0137 0001389 169.3111 282.1309  1.00274040 22484
